[
    {
        "Altitude(m)": 703070.4093858278,
        "Argument of Periapsis(deg)": 0.004556048474650827,
        "Eccentricity": 0.0,
        "Inclination(deg)": 45.0,
        "Latitude(deg)": 3.222074164876296,
        "Longitude(deg)": 37.91864483759619,
        "Mean Anomaly(deg)": 4.613286658992314,
        "RAAN(deg)": 134.99569922341672,
        "Satellite Name": "Constellation 1 594",
        "Satellite Number": 594,
        "Semi-Major Axis(m)": 7083131.272910544,
        "Time(s)": 76
    },
    {
        "Altitude(m)": 703066.3658024176,
        "Argument of Periapsis(deg)": 0.004615996480896233,
        "Eccentricity": 0.0,
        "Inclination(deg)": 45.0,
        "Latitude(deg)": 3.265224770369239,
        "Longitude(deg)": 37.95753514851823,
        "Mean Anomaly(deg)": 4.673987799242226,
        "RAAN(deg)": 134.99564263425114,
        "Satellite Name": "Constellation 1 594",
        "Satellite Number": 594,
        "Semi-Major Axis(m)": 7083131.272910544,
        "Time(s)": 77
    },
    {
        "Altitude(m)": 703062.3430913473,
        "Argument of Periapsis(deg)": 0.004675944487141638,
        "Eccentricity": 0.0,
        "Inclination(deg)": 45.0,
        "Latitude(deg)": 3.3083735522465334,
        "Longitude(deg)": 37.9964291873807,
        "Mean Anomaly(deg)": 4.734688939492113,
        "RAAN(deg)": 134.9955860450856,
        "Satellite Name": "Constellation 1 594",
        "Satellite Number": 594,
        "Semi-Major Axis(m)": 7083131.272910544,
        "Time(s)": 78
    },
    {
        "Altitude(m)": 703058.3412519009,
        "Argument of Periapsis(deg)": 0.004735892493387044,
        "Eccentricity": 0.0,
        "Inclination(deg)": 45.0,
        "Latitude(deg)": 3.3515204852843636,
        "Longitude(deg)": 38.03532700282332,
        "Mean Anomaly(deg)": 4.795390079742025,
        "RAAN(deg)": 134.99552945592,
        "Satellite Name": "Constellation 1 594",
        "Satellite Number": 594,
        "Semi-Major Axis(m)": 7083131.272910544,
        "Time(s)": 79
    },
    {
        "Altitude(m)": 703054.3602832691,
        "Argument of Periapsis(deg)": 0.004795840499632449,
        "Eccentricity": 0.0,
        "Inclination(deg)": 45.0,
        "Latitude(deg)": 3.3946655442516036,
        "Longitude(deg)": 38.0742286434945,
        "Mean Anomaly(deg)": 4.856091219991911,
        "RAAN(deg)": 134.99547286675443,
        "Satellite Name": "Constellation 1 594",
        "Satellite Number": 594,
        "Semi-Major Axis(m)": 7083131.272910544,
        "Time(s)": 80
    },
    {
        "Altitude(m)": 703050.4001845494,
        "Argument of Periapsis(deg)": 0.004855788505877855,
        "Eccentricity": 0.0,
        "Inclination(deg)": 45.0,
        "Latitude(deg)": 3.4378087039097367,
        "Longitude(deg)": 38.113134158051295,
        "Mean Anomaly(deg)": 4.916792360241822,
        "RAAN(deg)": 134.99541627758887,
        "Satellite Name": "Constellation 1 594",
        "Satellite Number": 594,
        "Semi-Major Axis(m)": 7083131.272910544,
        "Time(s)": 81
    },
    {
        "Altitude(m)": 703046.4609547496,
        "Argument of Periapsis(deg)": 0.00491573651212326,
        "Eccentricity": 0.0,
        "Inclination(deg)": 45.0,
        "Latitude(deg)": 3.4809499390125045,
        "Longitude(deg)": 38.152043427062644,
        "Mean Anomaly(deg)": 4.977493500491735,
        "RAAN(deg)": 134.9953596884233,
        "Satellite Name": "Constellation 1 594",
        "Satellite Number": 594,
        "Semi-Major Axis(m)": 7083131.272910544,
        "Time(s)": 82
    },
    {
        "Altitude(m)": 703042.5425927814,
        "Argument of Periapsis(deg)": 0.004975684518368666,
        "Eccentricity": 0.0,
        "Inclination(deg)": 45.0,
        "Latitude(deg)": 3.524089224306862,
        "Longitude(deg)": 38.19095683539758,
        "Mean Anomaly(deg)": 5.038194640741621,
        "RAAN(deg)": 134.99530309925774,
        "Satellite Name": "Constellation 1 594",
        "Satellite Number": 594,
        "Semi-Major Axis(m)": 7083131.272910544,
        "Time(s)": 83
    },
    {
        "Altitude(m)": 703038.6450974579,
        "Argument of Periapsis(deg)": 0.005035632524614072,
        "Eccentricity": 0.0,
        "Inclination(deg)": 45.0,
        "Latitude(deg)": 3.567226534531306,
        "Longitude(deg)": 38.22987426364287,
        "Mean Anomaly(deg)": 5.098895780991533,
        "RAAN(deg)": 134.99524651009216,
        "Satellite Name": "Constellation 1 594",
        "Satellite Number": 594,
        "Semi-Major Axis(m)": 7083131.272910544,
        "Time(s)": 84
    },
    {
        "Altitude(m)": 703034.7684675101,
        "Argument of Periapsis(deg)": 0.0050955805308594785,
        "Eccentricity": 0.0,
        "Inclination(deg)": 45.0,
        "Latitude(deg)": 3.6103618444168357,
        "Longitude(deg)": 38.26879576049161,
        "Mean Anomaly(deg)": 5.15959692124142,
        "RAAN(deg)": 134.9951899209266,
        "Satellite Name": "Constellation 1 594",
        "Satellite Number": 594,
        "Semi-Major Axis(m)": 7083131.272910544,
        "Time(s)": 85
    },
    {
        "Altitude(m)": 703030.912701566,
        "Argument of Periapsis(deg)": 0.005155528537104883,
        "Eccentricity": 0.0,
        "Inclination(deg)": 45.0,
        "Latitude(deg)": 3.6534951286866013,
        "Longitude(deg)": 38.307721374646206,
        "Mean Anomaly(deg)": 5.220298061491332,
        "RAAN(deg)": 134.99513333176105,
        "Satellite Name": "Constellation 1 594",
        "Satellite Number": 594,
        "Semi-Major Axis(m)": 7083131.272910544,
        "Time(s)": 86
    },
    {
        "Altitude(m)": 703027.0777981724,
        "Argument of Periapsis(deg)": 0.0052154765433502885,
        "Eccentricity": 0.0,
        "Inclination(deg)": 45.0,
        "Latitude(deg)": 3.696626362055806,
        "Longitude(deg)": 38.34665115481826,
        "Mean Anomaly(deg)": 5.280999201741218,
        "RAAN(deg)": 134.99507674259544,
        "Satellite Name": "Constellation 1 594",
        "Satellite Number": 594,
        "Semi-Major Axis(m)": 7083131.272910544,
        "Time(s)": 87
    },
    {
        "Altitude(m)": 703023.2637557687,
        "Argument of Periapsis(deg)": 0.005275424549595694,
        "Eccentricity": 0.0,
        "Inclination(deg)": 45.0,
        "Latitude(deg)": 3.7397555192316156,
        "Longitude(deg)": 38.38558514972899,
        "Mean Anomaly(deg)": 5.34170034199113,
        "RAAN(deg)": 134.9950201534299,
        "Satellite Name": "Constellation 1 594",
        "Satellite Number": 594,
        "Semi-Major Axis(m)": 7083131.272910544,
        "Time(s)": 88
    },
    {
        "Altitude(m)": 703019.4705727136,
        "Argument of Periapsis(deg)": 0.0053353725558411,
        "Eccentricity": 0.0,
        "Inclination(deg)": 45.0,
        "Latitude(deg)": 3.7828825749128088,
        "Longitude(deg)": 38.42452324001195,
        "Mean Anomaly(deg)": 5.402401482241016,
        "RAAN(deg)": 134.9949635642643,
        "Satellite Name": "Constellation 1 594",
        "Satellite Number": 594,
        "Semi-Major Axis(m)": 7083131.272910544,
        "Time(s)": 89
    },
    {
        "Altitude(m)": 703015.6982472695,
        "Argument of Periapsis(deg)": 0.005395320562086505,
        "Eccentricity": 0.0,
        "Inclination(deg)": 45.0,
        "Latitude(deg)": 3.826007503790732,
        "Longitude(deg)": 38.463465810601754,
        "Mean Anomaly(deg)": 5.463102622490928,
        "RAAN(deg)": 134.99490697509876,
        "Satellite Name": "Constellation 1 594",
        "Satellite Number": 594,
        "Semi-Major Axis(m)": 7083131.272910544,
        "Time(s)": 90
    },
    {
        "Altitude(m)": 703011.9467776066,
        "Argument of Periapsis(deg)": 0.00545526856833191,
        "Eccentricity": 0.0,
        "Inclination(deg)": 45.0,
        "Latitude(deg)": 3.869130280547646,
        "Longitude(deg)": 38.50241274215153,
        "Mean Anomaly(deg)": 5.52380376274084,
        "RAAN(deg)": 134.99485038593318,
        "Satellite Name": "Constellation 1 594",
        "Satellite Number": 594,
        "Semi-Major Axis(m)": 7083131.272910544,
        "Time(s)": 91
    },
    {
        "Altitude(m)": 703008.2161617966,
        "Argument of Periapsis(deg)": 0.005515216574577317,
        "Eccentricity": 0.0,
        "Inclination(deg)": 45.0,
        "Latitude(deg)": 3.9122508798575764,
        "Longitude(deg)": 38.54136408342119,
        "Mean Anomaly(deg)": 5.584504902990701,
        "RAAN(deg)": 134.9947937967676,
        "Satellite Name": "Constellation 1 594",
        "Satellite Number": 594,
        "Semi-Major Axis(m)": 7083131.272910544,
        "Time(s)": 92
    },
    {
        "Altitude(m)": 703004.5063978246,
        "Argument of Periapsis(deg)": 0.005575164580822722,
        "Eccentricity": 0.0,
        "Inclination(deg)": 45.0,
        "Latitude(deg)": 3.955369276386218,
        "Longitude(deg)": 38.58031988318098,
        "Mean Anomaly(deg)": 5.645206043240613,
        "RAAN(deg)": 134.99473720760201,
        "Satellite Name": "Constellation 1 594",
        "Satellite Number": 594,
        "Semi-Major Axis(m)": 7083131.272910544,
        "Time(s)": 93
    },
    {
        "Altitude(m)": 703000.8174835815,
        "Argument of Periapsis(deg)": 0.005635112587068129,
        "Eccentricity": 0.0,
        "Inclination(deg)": 45.0,
        "Latitude(deg)": 3.9984854447905476,
        "Longitude(deg)": 38.61928019021092,
        "Mean Anomaly(deg)": 5.705907183490499,
        "RAAN(deg)": 134.99468061843646,
        "Satellite Name": "Constellation 1 594",
        "Satellite Number": 594,
        "Semi-Major Axis(m)": 7083131.272910544,
        "Time(s)": 94
    }
]